[{"OBJECT_NAME":"NANOFF A","OBJECT_ID":"2023-185T","EPOCH":"2026-03-09T23:34:34.415328","MEAN_MOTION":15.11542977,"ECCENTRICITY":0.00086783,"INCLINATION":97.5359,"RA_OF_ASC_NODE":137.8345,"ARG_OF_PERICENTER":292.8968,"MEAN_ANOMALY":67.1346,"EPHEMERIS_TYPE":0,"CLASSIFICATION_TYPE":"U","NORAD_CAT_ID":58810,"ELEMENT_SET_NO":999,"REV_AT_EPOCH":11805,"BSTAR":0.00027314844,"MEAN_MOTION_DOT":4.57e-5,"MEAN_MOTION_DDOT":0},{"OBJECT_NAME":"COSMOS 252 DEB","OBJECT_ID":"1968-097P","EPOCH":"2026-03-09T22:17:10.598496","MEAN_MOTION":14.38094105,"ECCENTRICITY":0.0355903,"INCLINATION":62.2712,"RA_OF_ASC_NODE":340.7322,"ARG_OF_PERICENTER":288.5301,"MEAN_ANOMALY":67.7406,"EPHEMERIS_TYPE":0,"CLASSIFICATION_TYPE":"U","NORAD_CAT_ID":3561,"ELEMENT_SET_NO":999,"REV_AT_EPOCH":82694,"BSTAR":0.0010469467,"MEAN_MOTION_DOT":6.528e-5,"MEAN_MOTION_DDOT":0}]
